NORAD_CAT_ID,OBJECT_NAME,OBJECT_TYPE,EPOCH,MEAN_MOTION,ECCENTRICITY,INCLINATION,RA_OF_ASC_NODE,ARG_OF_PERICENTER,MEAN_ANOMALY,BSTAR,MEAN_MOTION_DOT,MEAN_MOTION_DDOT,TLE_LINE0,TLE_LINE1,TLE_LINE2,SEMIMAJOR_AXIS,PERIOD,APOGEE,PERIGEE,DECAYED
56498.0,STARLINK-5522,PAYLOAD,2024-04-09 21:53:33,14.98329015,0.0002998,70.0001,66.2731,269.9752,90.1063,3.0248e-05,2.68e-06,0.0,0 STARLINK-5522,1 56498U 23064BC  24100.91219592  .00000268  00000-0  30248-4 0  9999,2 56498  70.0001  66.2731 0002998 269.9752  90.1063 14.98329015 51563,6950.196,96.107,574.145,569.977,0.0
56498.0,STARLINK-5522,PAYLOAD,2024-04-10 04:18:05,14.98331962,0.000306,70.0,65.6,271.0792,89.0016,3.0041e-05,2.65e-06,0.0,0 STARLINK-5522,1 56498U 23064BC  24101.17923411  .00000265  00000-0  30041-4 0  9998,2 56498  70.0000  65.6000 0003060 271.0792  89.0016 14.98331962 51966,6950.187,96.107,574.179,569.925,0.0
56498.0,STARLINK-5522,PAYLOAD,2024-04-10 07:30:21,14.98331316,0.0003007,70.0002,65.2634,270.3698,89.7116,3.488e-05,3.23e-06,0.0,0 STARLINK-5522,1 56498U 23064BC  24101.31275426  .00000323  00000-0  34880-4 0  9990,2 56498  70.0002  65.2634 0003007 270.3698  89.7116 14.98331316 51629,6950.189,96.107,574.144,569.964,0.0
56498.0,STARLINK-5522,PAYLOAD,2024-04-10 21:55:34,14.9832829,0.0002923,70.0005,63.7484,270.7682,89.3142,-4.6787e-05,-6.51e-06,0.0,0 STARLINK-5522,1 56498U 23064BC  24101.91359875 -.00000651  00000-0 -46787-4 0  9992,2 56498  70.0005  63.7484 0002923 270.7682  89.3142 14.98328290 51713,6950.198,96.107,574.095,570.032,0.0
56498.0,STARLINK-5522,PAYLOAD,2024-04-11 04:20:07,14.98330317,0.0002994,70.0003,63.0751,270.4917,89.5899,-2.1152e-05,-3.45e-06,0.0,0 STARLINK-5522,1 56498U 23064BC  24102.18063674 -.00000345  00000-0 -21152-4 0  9990,2 56498  70.0003  63.0751 0002994 270.4917  89.5899 14.98330317 52116,6950.192,96.107,574.138,569.976,0.0
56498.0,STARLINK-5522,PAYLOAD,2024-04-11 07:32:23,14.98330844,0.0002973,70.0006,62.7384,270.3299,89.7519,6.5037e-06,-1.5e-07,0.0,0 STARLINK-5522,1 56498U 23064BC  24102.31415566 -.00000015  00000-0  65037-5 0  9990,2 56498  70.0006  62.7384 0002973 270.3299  89.7519 14.98330844 51773,6950.19,96.107,574.122,569.989,0.0
56498.0,STARLINK-5522,PAYLOAD,2024-04-11 21:57:35,14.98330196,0.0002911,70.0008,61.2235,271.2605,88.822,-7.0523e-06,-1.77e-06,0.0,0 STARLINK-5522,1 56498U 23064BC  24102.91499625 -.00000177  00000-0 -70523-5 0  9990,2 56498  70.0008  61.2235 0002911 271.2605  88.8220 14.98330196 51866,6950.192,96.107,574.08,570.034,0.0
56498.0,STARLINK-5522,PAYLOAD,2024-04-12 04:22:07,14.98331943,0.0002855,70.001,60.5507,270.1067,89.9765,1.0074e-05,2.7e-07,0.0,0 STARLINK-5522,1 56498U 23064BC  24103.18203449  .00000027  00000-0  10074-4 0  9993,2 56498  70.0010  60.5507 0002855 270.1067  89.9765 14.98331943 52262,6950.187,96.107,574.036,570.068,0.0
56498.0,STARLINK-5522,PAYLOAD,2024-04-12 07:34:23,14.98333139,0.0002795,70.0012,60.2144,269.2049,90.879,3.0068e-05,2.66e-06,0.0,0 STARLINK-5522,1 56498U 23064BC  24103.31555298  .00000266  00000-0  30068-4 0  9990,2 56498  70.0012  60.2144 0002795 269.2049  90.8790 14.98333139 51920,6950.183,96.107,573.991,570.106,0.0
56498.0,STARLINK-5522,PAYLOAD,2024-04-12 21:59:36,14.98328285,0.0002785,70.0014,58.7003,262.4037,97.6806,4.0205e-05,3.87e-06,0.0,0 STARLINK-5522,1 56498U 23064BC  24103.91639469  .00000387  00000-0  40205-4 0  9997,2 56498  70.0014  58.7003 0002785 262.4037  97.6806 14.98328285 52019,6950.198,96.107,573.999,570.128,0.0
56498.0,STARLINK-5522,PAYLOAD,2024-04-13 04:24:11,14.9828542,0.0002509,70.0019,58.0269,258.979,101.1086,-0.00023975,-2.949e-05,0.0,0 STARLINK-5522,1 56498U 23064BC  24104.18347012 -.00002949  00000-0 -23975-3 0  9999,2 56498  70.0019  58.0269 0002509 258.9790 101.1086 14.98285420 52419,6950.331,96.11,573.94,570.452,0.0
56498.0,STARLINK-5522,PAYLOAD,2024-04-13 07:36:28,14.98283632,0.0002568,70.0015,57.6905,270.3103,89.7761,-0.00048384,-5.854e-05,0.0,0 STARLINK-5522,1 56498U 23064BC  24104.31700036 -.00005854  00000-0 -48384-3 0  9992,2 56498  70.0015  57.6905 0002568 270.3103  89.7761 14.98283632 52074,6950.336,96.11,573.986,570.416,0.0
56498.0,STARLINK-5522,PAYLOAD,2024-04-13 22:01:39,14.98310314,0.0003425,70.0019,56.1761,286.4226,73.6556,-0.00018887,-2.345e-05,0.0,0 STARLINK-5522,1 56498U 23064BC  24104.91782298 -.00002345  00000-0 -18887-3 0  9995,2 56498  70.0019  56.1761 0003425 286.4226  73.6556 14.98310314 52161,6950.254,96.108,574.499,569.738,0.0
56498.0,STARLINK-5522,PAYLOAD,2024-04-14 04:26:10,14.98325237,0.0002235,70.0026,55.503,254.8213,105.2699,3.0933e-05,2.76e-06,0.0,0 STARLINK-5522,1 56498U 23064BC  24105.18484901  .00000276  00000-0  30933-4 0  9991,2 56498  70.0026  55.5030 0002235 254.8213 105.2699 14.98325237 52568,6950.208,96.107,573.626,570.519,0.0
56498.0,STARLINK-5522,PAYLOAD,2024-04-14 06:02:18,14.98332428,0.0002391,70.0019,55.3327,281.3928,78.6962,7.4317e-05,7.94e-06,0.0,0 STARLINK-5522,1 56498U 23064BC  24105.25160436  .00000794  00000-0  74317-4 0  9992,2 56498  70.0019  55.3327 0002391 281.3928  78.6962 14.98332428 52575,6950.185,96.107,573.712,570.389,0.0
56498.0,STARLINK-5522,PAYLOAD,2024-04-14 22:03:38,14.98337964,0.0002953,70.0005,53.6485,271.6718,88.4103,0.00013999,1.578e-05,0.0,0 STARLINK-5522,1 56498U 23064BC  24105.91919520  .00001578  00000-0  13999-3 0  9990,2 56498  70.0005  53.6485 0002953 271.6718  88.4103 14.98337964 52317,6950.168,96.106,574.086,569.981,0.0
56498.0,STARLINK-5522,PAYLOAD,2024-04-15 04:28:09,14.98345356,0.000232,70.0028,52.9791,239.571,120.522,0.00022279,2.567e-05,0.0,0 STARLINK-5522,1 56498U 23064BC  24106.18622632  .00002567  00000-0  22279-3 0  9995,2 56498  70.0028  52.9791 0002320 239.5710 120.5220 14.98345356 52713,6950.145,96.106,573.623,570.398,0.0
56498.0,STARLINK-5522,PAYLOAD,2024-04-15 06:04:17,14.9834805,0.000258,70.0015,52.8079,272.0218,88.0645,0.00026882,3.117e-05,0.0,0 STARLINK-5522,1 56498U 23064BC  24106.25298260  .00003117  00000-0  26882-3 0  9995,2 56498  70.0015  52.8079 0002580 272.0218  88.0645 14.98348050 52364,6950.137,96.106,573.795,570.209,0.0
56498.0,STARLINK-5522,PAYLOAD,2024-04-15 20:29:31,14.98334961,0.0001984,70.0043,51.2975,263.4342,96.6591,6.3139e-05,6.61e-06,0.0,0 STARLINK-5522,1 56498U 23064BC  24106.85383791  .00000661  00000-0  63139-4 0  9993,2 56498  70.0043  51.2975 0001984 263.4342  96.6591 14.98334961 52813,6950.178,96.107,573.421,570.664,0.0
56498.0,STARLINK-5522,PAYLOAD,2024-04-15 22:05:39,14.98333321,0.0002204,70.0039,51.1296,262.3607,97.7302,1.8299e-05,1.26e-06,0.0,0 STARLINK-5522,1 56498U 23064BC  24106.92059958  .00000126  00000-0  18299-4 0  9999,2 56498  70.0039  51.1296 0002204 262.3607  97.7302 14.98333321 52463,6950.183,96.107,573.579,570.516,0.0
56498.0,STARLINK-5522,PAYLOAD,2024-04-16 12:30:52,14.98326842,0.0002628,70.0009,49.61,284.9601,75.1267,-0.00021527,-2.66e-05,0.0,0 STARLINK-5522,1 56498U 23064BC  24107.52144477 -.00002660  00000-0 -21527-3 0  9991,2 56498  70.0009  49.6100 0002628 284.9601  75.1267 14.98326842 52910,6950.203,96.107,573.894,570.241,0.0
56498.0,STARLINK-5522,PAYLOAD,2024-04-16 14:07:00,14.98327607,0.0002937,70.0008,49.4408,270.4078,89.6744,-0.00021018,-2.6e-05,0.0,0 STARLINK-5522,1 56498U 23064BC  24107.58820179 -.00002600  00000-0 -21018-3 0  9996,2 56498  70.0008  49.4408 0002937 270.4078  89.6744 14.98327607 52560,6950.2,96.107,574.107,570.024,0.0
56498.0,STARLINK-5522,PAYLOAD,2024-04-16 20:31:32,14.98340814,0.0002913,70.0007,48.7681,275.1663,84.9164,-0.00024261,-2.987e-05,0.0,0 STARLINK-5522,1 56498U 23064BC  24107.85523435 -.00002987  00000-0 -24261-3 0  9992,2 56498  70.0007  48.7681 0002913 275.1663  84.9164 14.98340814 52963,6950.159,96.106,574.049,570.0,0.0
56498.0,STARLINK-5522,PAYLOAD,2024-04-16 22:07:40,14.98339673,0.000309,70.0003,48.5989,271.4773,88.6032,-0.00023662,-2.916e-05,0.0,0 STARLINK-5522,1 56498U 23064BC  24107.92199364 -.00002916  00000-0 -23662-3 0  9996,2 56498  70.0003  48.5989 0003090 271.4773  88.6032 14.98339673 52614,6950.163,96.106,574.176,569.88,0.0
56498.0,STARLINK-5522,PAYLOAD,2024-04-17 04:32:10,14.98357633,0.0002966,70.0003,47.9264,273.6602,86.4218,-4.7242e-05,-6.57e-06,0.0,0 STARLINK-5522,1 56498U 23064BC  24108.18901423 -.00000657  00000-0 -47242-4 0  9993,2 56498  70.0003  47.9264 0002966 273.6602  86.4218 14.98357633 53012,6950.107,96.105,574.034,569.911,0.0
56498.0,STARLINK-5522,PAYLOAD,2024-04-17 12:32:54,14.98302305,0.000231,70.0011,47.0856,290.4808,69.6103,-0.00046412,-5.622e-05,0.0,0 STARLINK-5522,1 56498U 23064BC  24108.52285787 -.00005622  00000-0 -46412-3 0  9993,2 56498  70.0011  47.0856 0002310 290.4808  69.6103 14.98302305 53064,6950.279,96.109,573.749,570.538,0.0
56498.0,STARLINK-5522,PAYLOAD,2024-04-17 20:33:34,14.98305607,0.0002952,70.0012,46.2436,269.9538,90.1283,-0.00026337,-3.232e-05,0.0,0 STARLINK-5522,1 56498U 23064BC  24108.85665053 -.00003232  00000-0 -26337-3 0  9996,2 56498  70.0012  46.2436 0002952 269.9538  90.1283 14.98305607 53115,6950.268,96.109,574.185,570.082,0.0
56498.0,STARLINK-5522,PAYLOAD,2024-04-17 22:09:42,14.98303818,0.0003121,70.0008,46.075,264.3267,95.7536,-0.00026066,-3.2e-05,0.0,0 STARLINK-5522,1 56498U 23064BC  24108.92341175 -.00003200  00000-0 -26066-3 0  9994,2 56498  70.0008  46.0750 0003121 264.3267  95.7536 14.98303818 52768,6950.274,96.109,574.308,569.97,0.0
56498.0,STARLINK-5522,PAYLOAD,2024-04-18 04:34:14,14.98317685,0.0002887,70.0006,45.4005,267.0734,93.0094,-0.00015334,-1.921e-05,0.0,0 STARLINK-5522,1 56498U 23064BC  24109.19044305 -.00001921  00000-0 -15334-3 0  9993,2 56498  70.0006  45.4005 0002887 267.0734  93.0094 14.98317685 53161,6950.231,96.108,574.103,570.089,0.0
56498.0,STARLINK-5522,PAYLOAD,2024-04-18 12:34:54,14.98326769,0.0003054,70.0006,44.5599,266.6984,93.3825,-0.00018759,-2.33e-05,0.0,0 STARLINK-5522,1 56498U 23064BC  24109.52423927 -.00002330  00000-0 -18759-3 0  9990,2 56498  70.0006  44.5599 0003054 266.6984  93.3825 14.98326769 53212,6950.203,96.107,574.19,569.945,0.0
